{"type": "FeatureCollection", "features": [{"type": "Feature", "properties": {"name": "2022年国际咨询研究范围", "name_en": "2022 international consultation study area", "kind": "study_area", "area_km2": 13.4, "source": "Georeferenced from 图二 基地范围 (gray dash-dot), snapped to OSM road centrelines; stated ~13.4 km2"}, "geometry": {"type": "Polygon", "coordinates": [[[113.88884202889774, 22.548952045147853], [113.88783436331411, 22.54973723501951], [113.88727724765386, 22.550145248624695], [113.88694210655969, 22.550339157343647], [113.88680635394998, 22.550467964032926], [113.88613922750824, 22.550842980074968], [113.8852846400585, 22.551273090437164], [113.88414262649897, 22.551774185199267], [113.88342002300557, 22.552031498823233], [113.88267995432271, 22.55225176499179], [113.88164352168594, 22.552501788998484], [113.88039153922028, 22.552721229214278], [113.88010129763572, 22.552695608414048], [113.87744331900723, 22.552800563680233], [113.876860808498, 22.55285917058955], [113.87696190561468, 22.555961773346088], [113.87672782281207, 22.558809296133546], [113.88241716300308, 22.56372326364967], [113.88327854178252, 22.564531405619682], [113.88217615114178, 22.56588004334991], [113.88198051103947, 22.566080666513184], [113.87994743836863, 22.568022414913873], [113.87928201496149, 22.56861677030722], [113.87952596490499, 22.56881312874723], [113.879734886439, 22.568727011392294], [113.87995512768714, 22.568904285239036], [113.88558049961581, 22.573759431081925], [113.88631405649181, 22.574213234844276], [113.88711512606855, 22.574594691903254], [113.88741019611625, 22.574829557208485], [113.89598539612388, 22.58221290930203], [113.89436604108938, 22.58385436835128], [113.89418188957117, 22.584183013955865], [113.89412633328837, 22.584579808750213], [113.89188241293752, 22.593488857207095], [113.89332863308715, 22.593611990472308], [113.89390688161966, 22.593698575469944], [113.89762039719956, 22.594601823195767], [113.89882260361853, 22.593541573568253], [113.9000406152811, 22.592375881627135], [113.90093070986853, 22.59141635172004], [113.90220596101081, 22.590122189801146], [113.9094105039956, 22.593281252534226], [113.9081187128955, 22.596747545670905], [113.91046478818927, 22.59902308959751], [113.91572399249088, 22.597573544657305], [113.91571848923618, 22.597339594905083], [113.91565967107474, 22.59698061404655], [113.91504868532469, 22.594836497398575], [113.9148944773204, 22.594029618247955], [113.91483807978312, 22.59330933876875], [113.91497038714745, 22.592203536000447], [113.91544570473083, 22.59135139990832], [113.91589540501526, 22.59076127575702], [113.9178628534541, 22.5887556106436], [113.91796733229248, 22.588717441759883], [113.91814862126594, 22.588505477311344], [113.91819282064758, 22.588307631724565], [113.9183741086892, 22.58809566691336], [113.92134656443748, 22.584987674199365], [113.92229693465136, 22.58407547860604], [113.92239493200343, 22.584032529763974], [113.92338760872948, 22.583036317644797], [113.92374738559256, 22.582610330934866], [113.9238537745563, 22.582419292544195], [113.92373364019916, 22.58205174569053], [113.9226162706929, 22.579529456991214], [113.923068557723, 22.579137538986956], [113.92250742758532, 22.578638057203456], [113.92226757630714, 22.577957699219315], [113.92209829946817, 22.577600139334596], [113.92175259251712, 22.577152733040187], [113.92141315564092, 22.57682964377075], [113.92110303337864, 22.57660854407964], [113.91917906614152, 22.575473607224573], [113.91772439995268, 22.5746663357617], [113.9167043315211, 22.573829185141282], [113.91578524698885, 22.573024592578406], [113.91177268190623, 22.569428360619572], [113.91129947735386, 22.560914992242022], [113.91040036154152, 22.56034702933037], [113.9096244513634, 22.55980225435506], [113.90533889371642, 22.556670326743568], [113.90456899230269, 22.556183854515055], [113.90433038862518, 22.55658528452142], [113.90420548608726, 22.55672353182584], [113.90421542595551, 22.556850844539312], [113.90385230800845, 22.55727490315487], [113.90308655255473, 22.558091256008833], [113.90203421606883, 22.55907743012397], [113.89552423901583, 22.55357899396842], [113.89484371090785, 22.55413609480399], [113.88884202889774, 22.548952045147853]]]}}, {"type": "Feature", "properties": {"name": "城市更新重点片区范围", "name_en": "Urban renewal key area", "kind": "renewal_area", "area_km2": 5.12, "source": "Georeferenced from 图二 (red dashed), hand-traced, not road-snapped (approx.)"}, "geometry": {"type": "Polygon", "coordinates": [[[113.86278014791031, 22.55491360392471], [113.87216974186327, 22.546788542641984], [113.87645205578309, 22.5485777603824], [113.87668428655563, 22.55654269348528], [113.87586244950592, 22.55805954456398], [113.87333893475646, 22.560442811208627], [113.88078792936707, 22.567000351495963], [113.88419171750935, 22.563858933749735], [113.89005682252403, 22.5698199616787], [113.90178728221274, 22.580928671803083], [113.90542581436483, 22.57757094124813], [113.91340245039095, 22.585373718462208], [113.91146572909022, 22.58743165233603], [113.91598205468578, 22.59138712276657], [113.92185090459044, 22.585159251597105], [113.91721712377019, 22.581582771864177], [113.91422407106926, 22.584561382642804], [113.90636465725245, 22.577137802679914], [113.90765588245806, 22.5755129369168], [113.90795006144832, 22.572804298056028], [113.9061899806934, 22.572803836988903], [113.89592550598914, 22.564132899267015], [113.89240459550128, 22.566569976975654], [113.88096718301388, 22.556435453033828], [113.88085214116273, 22.54895820327673], [113.88390316417605, 22.54825460601331], [113.8865439011348, 22.546250457018854], [113.88918510412432, 22.54272906076928], [113.88566577481222, 22.54001877881042], [113.88302432216338, 22.544353036939036], [113.87833047389235, 22.545327152145884], [113.87481052875391, 22.5446218147009], [113.87275756723723, 22.543104062650713], [113.87217045755337, 22.544458565110503], [113.87099705373946, 22.544512443640105], [113.8695305860803, 22.543645081249885], [113.86688958281826, 22.546516233578064], [113.86512842020622, 22.550037763768838], [113.86395473344507, 22.55101276112904], [113.86278014791031, 22.55491360392471]]]}}]}