{
  "type": "FeatureCollection",
  "features": [
    {
      "type": "Feature",
      "properties": {
        "id": "xinzhen_he",
        "name": "新圳河",
        "name_en": "Xinzhen River",
        "kind": "canal",
        "waterway": "river/canal",
        "osm_ways": "named 新圳河 ways in local Guangdong OSM extract (incl. way/96392613 canal, way/237904519, way/237904510, way/239379587, …)",
        "source": "OpenStreetMap",
        "note": "发源于南山留仙洞以西，东北—西南流经宝安新安，沿新安一路南侧入前海湾/珠江口"
      },
      "geometry": {
        "type": "MultiLineString",
        "coordinates": [
          [
            [
              113.9066623,
              22.5681157
            ],
            [
              113.9071336,
              22.5709532
            ],
            [
              113.9072138,
              22.5713693
            ],
            [
              113.9079136,
              22.5751985
            ],
            [
              113.9079411,
              22.5752698
            ]
          ],
          [
            [
              113.904796,
              22.5661889
            ],
            [
              113.9065331,
              22.5677107
            ],
            [
              113.9066623,
              22.5681157
            ]
          ],
          [
            [
              113.9043003,
              22.5657737
            ],
            [
              113.9034847,
              22.5651098
            ],
            [
              113.9031799,
              22.5648451
            ],
            [
              113.9029874,
              22.5645884
            ],
            [
              113.9025503,
              22.5637101
            ],
            [
              113.9023818,
              22.5633611
            ],
            [
              113.9014714,
              22.5616286
            ],
            [
              113.9010144,
              22.5606708
            ]
          ],
          [
            [
              113.901431,
              22.5591057
            ],
            [
              113.9002406,
              22.5580656
            ],
            [
              113.8967484,
              22.5550338
            ],
            [
              113.8946025,
              22.5532049
            ]
          ],
          [
            [
              113.8946025,
              22.5532049
            ],
            [
              113.8937293,
              22.5524589
            ],
            [
              113.890414,
              22.5495643
            ]
          ],
          [
            [
              113.890414,
              22.5495643
            ],
            [
              113.8870448,
              22.5466671
            ],
            [
              113.8851184,
              22.5450103
            ]
          ]
        ]
      }
    }
  ]
}