{
  "type": "FeatureCollection",
  "features": [
    {
      "type": "Feature",
      "properties": {
        "id": "label_jiangang",
        "name": "尖岗山",
        "kind": "peak",
        "target": "jiangang",
        "osm_peak": "node/6354074409",
        "editable": true
      },
      "geometry": {
        "type": "Point",
        "coordinates": [
          113.9113719,
          22.5962051
        ]
      }
    },
    {
      "type": "Feature",
      "properties": {
        "id": "label_dajing",
        "name": "大井山",
        "kind": "peak",
        "target": "dajing",
        "osm_peak": "node/6354074410",
        "editable": true
      },
      "geometry": {
        "type": "Point",
        "coordinates": [
          113.9076383,
          22.5901627
        ]
      }
    },
    {
      "type": "Feature",
      "properties": {
        "id": "label_masong",
        "name": "孖松山",
        "kind": "peak",
        "target": "masong",
        "osm_peak": "node/13414770440",
        "editable": true
      },
      "geometry": {
        "type": "Point",
        "coordinates": [
          113.9040419,
          22.5945931
        ]
      }
    },
    {
      "type": "Feature",
      "properties": {
        "id": "label_xinzhen",
        "name": "新圳河",
        "kind": "canal",
        "target": "xinzhen_he",
        "editable": true
      },
      "geometry": {
        "type": "Point",
        "coordinates": [
          113.9035,
          22.5638
        ]
      }
    },
    {
      "type": "Feature",
      "properties": {
        "id": "label_xuehua",
        "name": "雪花科创城",
        "kind": "place",
        "target": "xuehua",
        "osm": "way/1419648180",
        "note": "OSM landuse=commercial 华润雪花科创城",
        "editable": true
      },
      "geometry": {
        "type": "Point",
        "coordinates": [
          113.916588,
          22.584898
        ]
      }
    },
    {
      "type": "Feature",
      "properties": {
        "id": "label_liuxiandong",
        "name": "留仙洞",
        "kind": "place",
        "target": "liuxiandong",
        "osm": "node/6712237114",
        "note": "OSM railway=station 留仙洞",
        "editable": true
      },
      "geometry": {
        "type": "Point",
        "coordinates": [
          113.9390833,
          22.583563
        ]
      }
    },
    {
      "type": "Feature",
      "properties": {
        "id": "label_xili_hub",
        "name": "西丽枢纽",
        "kind": "place",
        "target": "xili_hub",
        "osm": "way/1081081947",
        "note": "OSM 西丽高铁站 construction site — urban name 西丽枢纽",
        "editable": true
      },
      "geometry": {
        "type": "Point",
        "coordinates": [
          113.940188,
          22.568617
        ]
      }
    }
  ],
  "properties": {
    "description": "标注文字 — 直接改 properties.name 与 geometry 坐标即可"
  }
}