{
  "type": "FeatureCollection",
  "features": [
    {
      "type": "Feature",
      "properties": {
        "id": "jiangang",
        "name": "尖岗山",
        "name_en": "Jiangang Mountain",
        "kind": "mountain",
        "osm_peak": "node/6354074409",
        "osm_peak_name": "大岗",
        "source": "OSM wood/forest (+park) near peak; label names: official 尖岗山/大井山 + OSM 孖松山",
        "note": "尖岗山公园主峰；OSM peak tag name=大岗"
      },
      "geometry": {
        "type": "MultiPolygon",
        "coordinates": [
          [
            [
              [
                113.9043295,
                22.5897639
              ],
              [
                113.9045977,
                22.5896005
              ],
              [
                113.9046449,
                22.5893046
              ],
              [
                113.9048498,
                22.5891102
              ],
              [
                113.9054077,
                22.5884861
              ],
              [
                113.9057725,
                22.5883226
              ],
              [
                113.9061201,
                22.5881109
              ],
              [
                113.9068711,
                22.5881456
              ],
              [
                113.9076061,
                22.588096
              ],
              [
                113.9085084,
                22.5881097
              ],
              [
                113.9089429,
                22.5884783
              ],
              [
                113.9092119,
                22.5891187
              ],
              [
                113.909472,
                22.5894136
              ],
              [
                113.9095986,
                22.5894953
              ],
              [
                113.9097486,
                22.5895289
              ],
              [
                113.9099017,
                22.5895099
              ],
              [
                113.9100367,
                22.5894408
              ],
              [
                113.9100972,
                22.5893312
              ],
              [
                113.9101727,
                22.5890206
              ],
              [
                113.9102208,
                22.5889085
              ],
              [
                113.9103088,
                22.5888195
              ],
              [
                113.9104253,
                22.588765
              ],
              [
                113.9105551,
                22.5887522
              ],
              [
                113.9106814,
                22.5887826
              ],
              [
                113.9107879,
                22.5888524
              ],
              [
                113.9108606,
                22.5889525
              ],
              [
                113.9109105,
                22.589287
              ],
              [
                113.9109482,
                22.5893612
              ],
              [
                113.911011,
                22.589419
              ],
              [
                113.9110914,
                22.5894537
              ],
              [
                113.9111798,
                22.589461
              ],
              [
                113.9112656,
                22.5894401
              ],
              [
                113.9106422,
                22.590053
              ],
              [
                113.9106041,
                22.5900984
              ],
              [
                113.9105732,
                22.5901482
              ],
              [
                113.9105499,
                22.5902014
              ],
              [
                113.9105347,
                22.5902571
              ],
              [
                113.9105282,
                22.5903115
              ],
              [
                113.9104666,
                22.5913298
              ],
              [
                113.9103141,
                22.5913426
              ],
              [
                113.9101177,
                22.5917104
              ],
              [
                113.9098484,
                22.591885
              ],
              [
                113.9095115,
                22.5920571
              ],
              [
                113.9095491,
                22.5923988
              ],
              [
                113.909431,
                22.5927108
              ],
              [
                113.9089161,
                22.5929585
              ],
              [
                113.9073175,
                22.5917104
              ],
              [
                113.9071351,
                22.591537
              ],
              [
                113.9065439,
                22.5908547
              ],
              [
                113.9061802,
                22.5907149
              ],
              [
                113.9058154,
                22.5905861
              ],
              [
                113.9053112,
                22.5902988
              ],
              [
                113.9048176,
                22.5903335
              ],
              [
                113.904485,
                22.5901156
              ],
              [
                113.9043295,
                22.5897639
              ]
            ]
          ],
          [
            [
              [
                113.9071368,
                22.6012655
              ],
              [
                113.9082008,
                22.6006477
              ],
              [
                113.9080334,
                22.6002537
              ],
              [
                113.9101003,
                22.5987372
              ],
              [
                113.9101231,
                22.5985203
              ],
              [
                113.9099932,
                22.5982739
              ],
              [
                113.9096295,
                22.5979012
              ],
              [
                113.9087766,
                22.5971088
              ],
              [
                113.908313,
                22.5966438
              ],
              [
                113.9072509,
                22.5955786
              ],
              [
                113.9071619,
                22.5954893
              ],
              [
                113.9074516,
                22.595103
              ],
              [
                113.9077037,
                22.5949693
              ],
              [
                113.9083367,
                22.5944492
              ],
              [
                113.9086038,
                22.5945396
              ],
              [
                113.9090394,
                22.5944047
              ],
              [
                113.9092057,
                22.5942511
              ],
              [
                113.9089,
                22.5939193
              ],
              [
                113.9091575,
                22.5933993
              ],
              [
                113.9096563,
                22.5928049
              ],
              [
                113.9101492,
                22.5927311
              ],
              [
                113.9103874,
                22.5928003
              ],
              [
                113.910514,
                22.5929491
              ],
              [
                113.9106725,
                22.593069
              ],
              [
                113.9108555,
                22.5931543
              ],
              [
                113.9110541,
                22.5932009
              ],
              [
                113.9111719,
                22.5932099
              ],
              [
                113.9112854,
                22.5931791
              ],
              [
                113.9113793,
                22.5931128
              ],
              [
                113.911441,
                22.5930196
              ],
              [
                113.9114624,
                22.5929123
              ],
              [
                113.9114529,
                22.59279
              ],
              [
                113.9114142,
                22.5926728
              ],
              [
                113.9113482,
                22.5925665
              ],
              [
                113.9112582,
                22.5924764
              ],
              [
                113.911774,
                22.5920888
              ],
              [
                113.9123976,
                22.5927158
              ],
              [
                113.912875,
                22.5929882
              ],
              [
                113.9131958,
                22.5931331
              ],
              [
                113.9135563,
                22.5930526
              ],
              [
                113.9145058,
                22.5932854
              ],
              [
                113.914538,
                22.5938945
              ],
              [
                113.9146131,
                22.5943452
              ],
              [
                113.9147729,
                22.59502
              ],
              [
                113.9152396,
                22.5968525
              ],
              [
                113.9149403,
                22.5969256
              ],
              [
                113.9147579,
                22.5974505
              ],
              [
                113.9144146,
                22.5974555
              ],
              [
                113.9139242,
                22.5979068
              ],
              [
                113.9125149,
                22.5982615
              ],
              [
                113.9129266,
                22.5996559
              ],
              [
                113.9143359,
                22.5993012
              ],
              [
                113.9157835,
                22.5989589
              ],
              [
                113.9161895,
                22.6003924
              ],
              [
                113.9156261,
                22.6007768
              ],
              [
                113.9152856,
                22.6010322
              ],
              [
                113.9151094,
                22.6011345
              ],
              [
                113.9146973,
                22.6012975
              ],
              [
                113.9142499,
                22.6015443
              ],
              [
                113.9140018,
                22.6016953
              ],
              [
                113.9138047,
                22.6018968
              ],
              [
                113.9132243,
                22.6022174
              ],
              [
                113.9128752,
                22.6023359
              ],
              [
                113.9125624,
                22.6023927
              ],
              [
                113.9117459,
                22.6024324
              ],
              [
                113.911367,
                22.6025354
              ],
              [
                113.9114957,
                22.6017866
              ],
              [
                113.9110022,
                22.6003207
              ],
              [
                113.9105726,
                22.6001014
              ],
              [
                113.9097529,
                22.6001001
              ],
              [
                113.9095276,
                22.6005211
              ],
              [
                113.9089322,
                22.6006796
              ],
              [
                113.9089751,
                22.6010906
              ],
              [
                113.9087541,
                22.6012553
              ],
              [
                113.9080781,
                22.601389
              ],
              [
                113.9072145,
                22.6013742
              ],
              [
                113.9071368,
                22.6012655
              ]
            ]
          ],
          [
            [
              [
                113.9122932,
                22.5922438
              ],
              [
                113.9138179,
                22.5907861
              ],
              [
                113.9142375,
                22.5901322
              ],
              [
                113.9146274,
                22.5903558
              ],
              [
                113.9140768,
                22.5908147
              ],
              [
                113.9138325,
                22.5911636
              ],
              [
                113.9135155,
                22.591468
              ],
              [
                113.9134439,
                22.591671
              ],
              [
                113.9132802,
                22.5919573
              ],
              [
                113.9128108,
                22.5921288
              ],
              [
                113.9126058,
                22.5923138
              ],
              [
                113.9126297,
                22.5925096
              ],
              [
                113.9122932,
                22.5922438
              ]
            ]
          ],
          [
            [
              [
                113.9095115,
                22.5920571
              ],
              [
                113.9101177,
                22.5917104
              ],
              [
                113.9103691,
                22.5915426
              ],
              [
                113.9109706,
                22.5917846
              ],
              [
                113.911774,
                22.5920888
              ],
              [
                113.9112582,
                22.5924764
              ],
              [
                113.9113482,
                22.5925665
              ],
              [
                113.9114142,
                22.5926728
              ],
              [
                113.9114529,
                22.59279
              ],
              [
                113.9114624,
                22.5929123
              ],
              [
                113.911441,
                22.5930196
              ],
              [
                113.9113793,
                22.5931128
              ],
              [
                113.9112854,
                22.5931791
              ],
              [
                113.9111719,
                22.5932099
              ],
              [
                113.9110541,
                22.5932009
              ],
              [
                113.9108555,
                22.5931543
              ],
              [
                113.9106725,
                22.593069
              ],
              [
                113.910514,
                22.5929491
              ],
              [
                113.9103874,
                22.5928003
              ],
              [
                113.9101492,
                22.5927311
              ],
              [
                113.9099329,
                22.5926158
              ],
              [
                113.909749,
                22.5924597
              ],
              [
                113.9096063,
                22.5922705
              ],
              [
                113.9095115,
                22.5920571
              ]
            ]
          ]
        ]
      }
    },
    {
      "type": "Feature",
      "properties": {
        "id": "dajing",
        "name": "大井山",
        "name_en": "Dajing Mountain",
        "kind": "mountain",
        "osm_peak": "node/6354074410",
        "osm_peak_name": "塘尾",
        "source": "OSM wood/forest (+park) near peak; label names: official 尖岗山/大井山 + OSM 孖松山",
        "note": "尖岗山公园南峰（大井山）；OSM peak tag name=塘尾"
      },
      "geometry": {
        "type": "MultiPolygon",
        "coordinates": [
          [
            [
              [
                113.9043295,
                22.5897639
              ],
              [
                113.9045977,
                22.5896005
              ],
              [
                113.9046449,
                22.5893046
              ],
              [
                113.9048498,
                22.5891102
              ],
              [
                113.9054077,
                22.5884861
              ],
              [
                113.9057725,
                22.5883226
              ],
              [
                113.9061201,
                22.5881109
              ],
              [
                113.9068711,
                22.5881456
              ],
              [
                113.9076061,
                22.588096
              ],
              [
                113.9085084,
                22.5881097
              ],
              [
                113.9089429,
                22.5884783
              ],
              [
                113.9092119,
                22.5891187
              ],
              [
                113.909472,
                22.5894136
              ],
              [
                113.9095986,
                22.5894953
              ],
              [
                113.9097486,
                22.5895289
              ],
              [
                113.9099017,
                22.5895099
              ],
              [
                113.9100367,
                22.5894408
              ],
              [
                113.9100972,
                22.5893312
              ],
              [
                113.9101727,
                22.5890206
              ],
              [
                113.9102208,
                22.5889085
              ],
              [
                113.9103088,
                22.5888195
              ],
              [
                113.9104253,
                22.588765
              ],
              [
                113.9105551,
                22.5887522
              ],
              [
                113.9106814,
                22.5887826
              ],
              [
                113.9107879,
                22.5888524
              ],
              [
                113.9108606,
                22.5889525
              ],
              [
                113.9109105,
                22.589287
              ],
              [
                113.9109482,
                22.5893612
              ],
              [
                113.911011,
                22.589419
              ],
              [
                113.9110914,
                22.5894537
              ],
              [
                113.9111798,
                22.589461
              ],
              [
                113.9112656,
                22.5894401
              ],
              [
                113.9106422,
                22.590053
              ],
              [
                113.9106041,
                22.5900984
              ],
              [
                113.9105732,
                22.5901482
              ],
              [
                113.9105499,
                22.5902014
              ],
              [
                113.9105347,
                22.5902571
              ],
              [
                113.9105282,
                22.5903115
              ],
              [
                113.9104666,
                22.5913298
              ],
              [
                113.9103141,
                22.5913426
              ],
              [
                113.9101177,
                22.5917104
              ],
              [
                113.9098484,
                22.591885
              ],
              [
                113.9095115,
                22.5920571
              ],
              [
                113.9095491,
                22.5923988
              ],
              [
                113.909431,
                22.5927108
              ],
              [
                113.9089161,
                22.5929585
              ],
              [
                113.9073175,
                22.5917104
              ],
              [
                113.9071351,
                22.591537
              ],
              [
                113.9065439,
                22.5908547
              ],
              [
                113.9061802,
                22.5907149
              ],
              [
                113.9058154,
                22.5905861
              ],
              [
                113.9053112,
                22.5902988
              ],
              [
                113.9048176,
                22.5903335
              ],
              [
                113.904485,
                22.5901156
              ],
              [
                113.9043295,
                22.5897639
              ]
            ]
          ],
          [
            [
              [
                113.9122932,
                22.5922438
              ],
              [
                113.9138179,
                22.5907861
              ],
              [
                113.9142375,
                22.5901322
              ],
              [
                113.9146274,
                22.5903558
              ],
              [
                113.9140768,
                22.5908147
              ],
              [
                113.9138325,
                22.5911636
              ],
              [
                113.9135155,
                22.591468
              ],
              [
                113.9134439,
                22.591671
              ],
              [
                113.9132802,
                22.5919573
              ],
              [
                113.9128108,
                22.5921288
              ],
              [
                113.9126058,
                22.5923138
              ],
              [
                113.9126297,
                22.5925096
              ],
              [
                113.9122932,
                22.5922438
              ]
            ]
          ]
        ]
      }
    },
    {
      "type": "Feature",
      "properties": {
        "id": "masong",
        "name": "孖松山",
        "name_en": "Masong Mountain",
        "kind": "mountain",
        "osm_peak": "node/13414770440",
        "osm_peak_name": "孖松山",
        "source": "OSM wood/forest (+park) near peak; label names: official 尖岗山/大井山 + OSM 孖松山",
        "note": "宝安公园内山峰"
      },
      "geometry": {
        "type": "MultiPolygon",
        "coordinates": [
          [
            [
              [
                113.8972735,
                22.5953575
              ],
              [
                113.8976099,
                22.5950816
              ],
              [
                113.8981837,
                22.5946327
              ],
              [
                113.8983077,
                22.5945466
              ],
              [
                113.898433,
                22.594476
              ],
              [
                113.8985157,
                22.5944463
              ],
              [
                113.8986306,
                22.5944234
              ],
              [
                113.8987484,
                22.5944102
              ],
              [
                113.8988657,
                22.5944166
              ],
              [
                113.8989554,
                22.5944486
              ],
              [
                113.8990431,
                22.5945025
              ],
              [
                113.8991159,
                22.5945727
              ],
              [
                113.8991762,
                22.5946745
              ],
              [
                113.8992067,
                22.5947634
              ],
              [
                113.8992241,
                22.5948617
              ],
              [
                113.8992081,
                22.5949744
              ],
              [
                113.899168,
                22.5950856
              ],
              [
                113.8991018,
                22.5951802
              ],
              [
                113.8990152,
                22.5952701
              ],
              [
                113.898881,
                22.5953685
              ],
              [
                113.8987315,
                22.5954434
              ],
              [
                113.8985729,
                22.5955151
              ],
              [
                113.8983903,
                22.5955578
              ],
              [
                113.8981927,
                22.5955819
              ],
              [
                113.8979981,
                22.5955835
              ],
              [
                113.8978104,
                22.5955641
              ],
              [
                113.8976287,
                22.595516
              ],
              [
                113.8974202,
                22.5954404
              ],
              [
                113.8972735,
                22.5953575
              ]
            ]
          ],
          [
            [
              [
                113.8926027,
                22.5914183
              ],
              [
                113.8930142,
                22.5897546
              ],
              [
                113.8933537,
                22.588402
              ],
              [
                113.8940924,
                22.5854956
              ],
              [
                113.8942496,
                22.5854599
              ],
              [
                113.8952043,
                22.5856723
              ],
              [
                113.8958195,
                22.5858092
              ],
              [
                113.8972322,
                22.5861236
              ],
              [
                113.8977311,
                22.586089
              ],
              [
                113.898863,
                22.584925
              ],
              [
                113.898981,
                22.5848606
              ],
              [
                113.9003198,
                22.5852288
              ],
              [
                113.9002685,
                22.5854005
              ],
              [
                113.9008508,
                22.5858195
              ],
              [
                113.900762,
                22.5861533
              ],
              [
                113.9017169,
                22.5863663
              ],
              [
                113.901808,
                22.5860939
              ],
              [
                113.9022133,
                22.586186
              ],
              [
                113.9025591,
                22.5863168
              ],
              [
                113.902779,
                22.5859552
              ],
              [
                113.9031277,
                22.5861732
              ],
              [
                113.9034325,
                22.5864197
              ],
              [
                113.9045224,
                22.5873173
              ],
              [
                113.9021567,
                22.5898977
              ],
              [
                113.901851,
                22.5901801
              ],
              [
                113.8982729,
                22.5934093
              ],
              [
                113.8974629,
                22.593959
              ],
              [
                113.8965485,
                22.5941254
              ],
              [
                113.895599,
                22.593853
              ],
              [
                113.8942228,
                22.5926763
              ],
              [
                113.8942496,
                22.5923989
              ],
              [
                113.8941906,
                22.5922107
              ],
              [
                113.8933323,
                22.591552
              ],
              [
                113.8926027,
                22.5914183
              ]
            ]
          ]
        ]
      }
    }
  ],
  "properties": {
    "description": "绿色山体资源高亮 — 可编辑"
  }
}