{
  "type": "FeatureCollection",
  "features": [
    {
      "type": "Feature",
      "properties": {
        "id": "dashi_lu",
        "name": "打石路",
        "name_full": "打石一路 / 打石路",
        "kind": "road_highlight",
        "source": "OpenStreetMap named ways 打石一路 + 打石路",
        "osm_parts": "打石一路:secondary:w183920366; 打石路:unclassified:w243387654; 打石一路:secondary:w529070121; 打石一路:secondary:w995989139; 打石一路:secondary:w995989141; 打石一路:tertiary:w1052075105; 打石一路:tertiary:w1052075108; 打石一路:secondary:w1123093669; 打石一路:secondary:w1123093671; 打石一路:secondary:w1158676492; 打石一路:secondary:w1158676493; 打石一路:secondary:w1208466039; 打石一路:secondary:w1208466046; 打石一路:secondary:w1208466123; 打石一路:secondary:w1222690643"
      },
      "geometry": {
        "type": "MultiLineString",
        "coordinates": [
          [
            [
              113.9245074,
              22.5793186
            ],
            [
              113.9238072,
              22.5793092
            ],
            [
              113.923416,
              22.57929
            ],
            [
              113.9230416,
              22.5792746
            ],
            [
              113.9229291,
              22.579269
            ],
            [
              113.9228641,
              22.5792683
            ]
          ],
          [
            [
              113.9229345,
              22.5791811
            ],
            [
              113.9231113,
              22.5791905
            ],
            [
              113.9233863,
              22.5791982
            ],
            [
              113.9234555,
              22.5792002
            ],
            [
              113.9240051,
              22.5792155
            ],
            [
              113.9244151,
              22.5792244
            ],
            [
              113.924748,
              22.5792168
            ],
            [
              113.9249436,
              22.5792167
            ]
          ],
          [
            [
              113.9249405,
              22.5793299
            ],
            [
              113.9245074,
              22.5793186
            ]
          ],
          [
            [
              113.9249436,
              22.5792167
            ],
            [
              113.9252244,
              22.5792166
            ]
          ],
          [
            [
              113.9252244,
              22.5792166
            ],
            [
              113.9257652,
              22.5792252
            ]
          ],
          [
            [
              113.9257652,
              22.5792252
            ],
            [
              113.9262342,
              22.5792358
            ],
            [
              113.9267333,
              22.5792649
            ],
            [
              113.9273895,
              22.5792667
            ],
            [
              113.9275068,
              22.5792639
            ]
          ],
          [
            [
              113.9284097,
              22.5791151
            ],
            [
              113.9283282,
              22.579148
            ],
            [
              113.928152,
              22.5792088
            ],
            [
              113.9279878,
              22.5792601
            ],
            [
              113.9278359,
              22.5793036
            ],
            [
              113.9277047,
              22.5793293
            ],
            [
              113.9275737,
              22.5793491
            ],
            [
              113.9274468,
              22.5793595
            ],
            [
              113.9272906,
              22.5793652
            ],
            [
              113.9268175,
              22.5793664
            ],
            [
              113.9257701,
              22.579339
            ],
            [
              113.9253645,
              22.5793362
            ],
            [
              113.9252228,
              22.5793352
            ],
            [
              113.9249405,
              22.5793299
            ]
          ],
          [
            [
              113.9275068,
              22.5792639
            ],
            [
              113.9276377,
              22.5792487
            ],
            [
              113.9277717,
              22.5792228
            ],
            [
              113.9278982,
              22.5791924
            ],
            [
              113.9280229,
              22.5791603
            ],
            [
              113.9281543,
              22.5791165
            ],
            [
              113.9282926,
              22.5790641
            ],
            [
              113.9283739,
              22.5790334
            ]
          ],
          [
            [
              113.9283739,
              22.5790334
            ],
            [
              113.9284699,
              22.578997
            ],
            [
              113.9286018,
              22.5789324
            ],
            [
              113.9287171,
              22.5788696
            ],
            [
              113.9288147,
              22.5788125
            ],
            [
              113.9289243,
              22.5787398
            ],
            [
              113.9290502,
              22.5786515
            ],
            [
              113.9291741,
              22.5785491
            ],
            [
              113.929318,
              22.5784281
            ],
            [
              113.9294655,
              22.5782873
            ]
          ],
          [
            [
              113.9345893,
              22.5753642
            ],
            [
              113.9343232,
              22.575367
            ],
            [
              113.9342705,
              22.5753706
            ],
            [
              113.9341663,
              22.5753778
            ],
            [
              113.934038,
              22.5753832
            ],
            [
              113.9339469,
              22.5753868
            ],
            [
              113.9337609,
              22.575394
            ],
            [
              113.9336371,
              22.5754031
            ],
            [
              113.9335347,
              22.5754128
            ],
            [
              113.9334168,
              22.5754281
            ],
            [
              113.9332984,
              22.5754471
            ],
            [
              113.9331909,
              22.5754703
            ],
            [
              113.9330413,
              22.5755067
            ],
            [
              113.9328984,
              22.5755491
            ],
            [
              113.9327095,
              22.5756156
            ],
            [
              113.9325643,
              22.5756739
            ],
            [
              113.9324298,
              22.5757333
            ],
            [
              113.9322619,
              22.5758228
            ],
            [
              113.9321365,
              22.5759012
            ],
            [
              113.932027,
              22.5759788
            ],
            [
              113.9319181,
              22.5760631
            ],
            [
              113.9318017,
              22.5761636
            ],
            [
              113.9304877,
              22.5774419
            ],
            [
              113.9294174,
              22.5784528
            ],
            [
              113.9292657,
              22.5785815
            ],
            [
              113.9291089,
              22.5787102
            ],
            [
              113.9289821,
              22.5788029
            ],
            [
              113.9287585,
              22.5789499
            ],
            [
              113.9286274,
              22.5790192
            ],
            [
              113.9285127,
              22.5790734
            ],
            [
              113.9284097,
              22.5791151
            ]
          ],
          [
            [
              113.9294655,
              22.5782873
            ],
            [
              113.929617,
              22.5781427
            ],
            [
              113.9300738,
              22.5777063
            ],
            [
              113.9301637,
              22.5776214
            ],
            [
              113.9303569,
              22.577439
            ],
            [
              113.9304178,
              22.5773827
            ],
            [
              113.9316722,
              22.5761692
            ],
            [
              113.931792,
              22.5760626
            ],
            [
              113.9318929,
              22.5759785
            ],
            [
              113.9320267,
              22.5758843
            ],
            [
              113.9321622,
              22.575794
            ],
            [
              113.9323256,
              22.5756958
            ],
            [
              113.9324809,
              22.5756181
            ],
            [
              113.9326761,
              22.5755311
            ],
            [
              113.9328629,
              22.5754662
            ],
            [
              113.9330092,
              22.5754222
            ],
            [
              113.933169,
              22.5753821
            ],
            [
              113.9333282,
              22.5753502
            ],
            [
              113.9334446,
              22.5753327
            ],
            [
              113.9335866,
              22.5753167
            ],
            [
              113.933669,
              22.5753092
            ],
            [
              113.9338863,
              22.5753023
            ],
            [
              113.9339469,
              22.5753018
            ],
            [
              113.9340344,
              22.5753004
            ],
            [
              113.9341685,
              22.5752934
            ]
          ],
          [
            [
              113.9413345,
              22.5752155
            ],
            [
              113.9404915,
              22.5752286
            ],
            [
              113.9400592,
              22.5752447
            ],
            [
              113.9394535,
              22.5751455
            ],
            [
              113.9392401,
              22.575133
            ],
            [
              113.938635,
              22.575225
            ],
            [
              113.9379586,
              22.5752933
            ],
            [
              113.9370094,
              22.575332
            ],
            [
              113.9355903,
              22.5753555
            ],
            [
              113.9345893,
              22.5753642
            ]
          ],
          [
            [
              113.9341685,
              22.5752934
            ],
            [
              113.9342724,
              22.5752882
            ],
            [
              113.9344265,
              22.5753075
            ],
            [
              113.9353117,
              22.5752923
            ],
            [
              113.9370162,
              22.5752629
            ],
            [
              113.9379709,
              22.575229
            ],
            [
              113.938347,
              22.5752032
            ],
            [
              113.9392389,
              22.5750725
            ],
            [
              113.9394573,
              22.5750756
            ],
            [
              113.9400308,
              22.5751492
            ],
            [
              113.9404854,
              22.575134
            ],
            [
              113.9413342,
              22.5751162
            ],
            [
              113.9423796,
              22.5751142
            ],
            [
              113.9429142,
              22.5751122
            ],
            [
              113.9431499,
              22.5751059
            ],
            [
              113.943218,
              22.5751056
            ],
            [
              113.9433428,
              22.5751048
            ],
            [
              113.9435264,
              22.5751025
            ],
            [
              113.9437085,
              22.5751038
            ],
            [
              113.9438579,
              22.5751416
            ]
          ],
          [
            [
              113.9438579,
              22.5751416
            ],
            [
              113.9437082,
              22.575197
            ],
            [
              113.9435247,
              22.5751994
            ],
            [
              113.9433414,
              22.5752017
            ],
            [
              113.9432144,
              22.5752025
            ],
            [
              113.9431505,
              22.5752029
            ],
            [
              113.9429544,
              22.5752066
            ],
            [
              113.9423724,
              22.575216
            ],
            [
              113.9413345,
              22.5752155
            ]
          ],
          [
            [
              113.9438579,
              22.5751416
            ],
            [
              113.9442425,
              22.5750596
            ],
            [
              113.944344,
              22.5749982
            ],
            [
              113.9449624,
              22.574562
            ],
            [
              113.9455094,
              22.5741762
            ]
          ]
        ]
      }
    }
  ]
}